H1 CPF 01  gfz 2021 09 04 00  7471 terrasarx 
H2 0702601  6201 31698    2021 09 04 00 59 42 2021 09 09 00 00 42   120 1 1  0 0 0
H9
10 0 59465  38862.000000  0   -2106049.337   6537681.955    532744.411
10 0 59465  38982.000000  0   -1896767.614   6465818.711   1427896.398
10 0 59465  39102.000000  0   -1656611.518   6276987.918   2297905.947
10 0 59465  39222.000000  0   -1391798.767   5973995.577   3127452.683
10 0 59465  39342.000000  0   -1108914.767   5561772.972   3901934.837
10 0 59465  39462.000000  0    -814759.276   5047290.869   4607731.123
10 0 59465  39582.000000  0    -516190.112   4439432.151   5232444.126
10 0 59465  39702.000000  0    -219968.032   3748827.609   5765115.055
10 0 59465  39822.000000  0      67390.665   2987662.545   6196412.717
10 0 59465  39942.000000  0     339753.023   2169453.469   6518791.682
10 0 59465  40062.000000  0     591496.829   1308803.466   6726618.123
10 0 59465  40182.000000  0     817624.098    421138.193   6816262.502
10 0 59465  40302.000000  0    1013858.469   -477570.368   6786158.175
10 0 59465  40422.000000  0    1176725.266  -1371090.298   6636828.357
10 0 59465  40542.000000  0    1303613.103  -2243222.562   6370877.943
10 0 59465  40662.000000  0    1392815.916  -3078094.896   5992951.594
10 0 59465  40782.000000  0    1443554.462  -3860452.998   5509657.049
10 0 59465  40902.000000  0    1455977.193  -4575941.810   4929454.079
10 0 59465  41022.000000  0    1431141.634  -5211373.085   4262513.030
10 0 59465  41142.000000  0    1370975.597  -5754977.486   3520542.572
10 0 59465  41262.000000  0    1278218.796  -6196632.679   2716585.202
10 0 59465  41382.000000  0    1156345.689  -6528060.287   1864787.279
10 0 59465  41502.000000  0    1009471.269  -6742990.413    980147.855
10 0 59465  41622.000000  0     842242.731  -6837288.064     78248.875
10 0 59465  41742.000000  0     659718.255  -6809038.006   -825028.666
10 0 59465  41862.000000  0     467236.149  -6658581.636  -1713795.306
10 0 59465  41982.000000  0     270280.159  -6388507.491  -2572440.506
10 0 59465  42102.000000  0      74343.216  -6003598.517  -3385912.257
10 0 59465  42222.000000  0    -115207.388  -5510736.845  -4139984.492
10 0 59465  42342.000000  0    -293260.030  -4918767.389  -4821505.834
10 0 59465  42462.000000  0    -455080.500  -4238326.249  -5418623.872
10 0 59465  42582.000000  0    -596422.910  -3481638.810  -5920983.616
10 0 59465  42702.000000  0    -713627.154  -2662291.697  -6319896.962
10 0 59465  42822.000000  0    -803701.578  -1794983.873  -6608481.650
10 0 59465  42942.000000  0    -864389.486   -895262.208  -6781768.625
10 0 59465  43062.000000  0    -894218.689     20754.276  -6836779.003
10 0 59465  43182.000000  0    -892532.745    936658.007  -6772568.687
10 0 59465  43302.000000  0    -859504.157   1836038.939  -6590242.343
10 0 59465  43422.000000  0    -796129.519   2702771.012  -6292936.359
10 0 59465  43542.000000  0    -704206.083   3521295.460  -5885772.057
10 0 59465  43662.000000  0    -586290.279   4276898.241  -5375776.872
10 0 59465  43782.000000  0    -445638.415   4955975.096  -4771773.998
10 0 59465  43902.000000  0    -286131.245   5546281.863  -4084241.258
10 0 59465  44022.000000  0    -112183.019   6037163.929  -3325138.723
10 0 59465  44142.000000  0      71363.484   6419759.138  -2507707.995
10 0 59465  44262.000000  0     259353.648   6687170.388  -1646245.599
10 0 59465  44382.000000  0     446446.909   6834602.819   -755853.257
10 0 59465  44502.000000  0     627249.161   6859460.856    147830.348
10 0 59465  44622.000000  0     796448.386   6761402.039   1048910.871
10 0 59465  44742.000000  0     948949.494   6542344.898   1931526.326
10 0 59465  44862.000000  0    1080003.601   6206431.285   2780134.648
10 0 59465  44982.000000  0    1185329.992   5759945.736   3579794.619
10 0 59465  45102.000000  0    1261228.029   5211191.388   4316435.536
10 0 59465  45222.000000  0    1304677.287   4570328.061   4977109.713
10 0 59465  45342.000000  0    1313418.337   3849170.819   5550222.158
10 0 59465  45462.000000  0    1286018.155   3060962.384   6025728.015
10 0 59465  45582.000000  0    1221916.465   2220123.432   6395304.331
10 0 59465  45702.000000  0    1121452.050   1341983.005   6652490.344
10 0 59465  45822.000000  0     985869.350    442495.095   6792794.157
10 0 59465  45942.000000  0     817304.967   -462051.155   6813765.283
10 0 59465  46062.000000  0     618754.139  -1355325.306   6715036.349
10 0 59465  46182.000000  0     394017.411  -2221250.560   6498329.561
10 0 59465  46302.000000  0     147628.197  -3044293.362   6167429.019
10 0 59465  46422.000000  0    -115236.989  -3809743.967   5728116.819
10 0 59465  46542.000000  0    -388863.504  -4503979.896   5188076.133
10 0 59465  46662.000000  0    -667117.574  -5114712.161   4556765.148
10 0 59465  46782.000000  0    -943578.788  -5631212.597   3845258.940
10 0 59465  46902.000000  0   -1211682.747  -6044512.732   3066057.314
10 0 59465  47022.000000  0   -1464869.922  -6347568.571   2232865.504
10 0 59465  47142.000000  0   -1696737.673  -6535390.306   1360351.822
10 0 59465  47262.000000  0   -1901193.002  -6605131.847    463883.508
10 0 59465  47382.000000  0   -2072599.078  -6556136.224   -440752.265
10 0 59465  47502.000000  0   -2205913.214  -6389937.081  -1337635.262
10 0 59465  47622.000000  0   -2296813.168  -6110216.210  -2211000.783
10 0 59465  47742.000000  0   -2341808.696  -5722718.433  -3045524.209
10 0 59465  47862.000000  0   -2338335.166  -5235125.410  -3826595.358
10 0 59465  47982.000000  0   -2284826.770  -4656892.217  -4540575.527
10 0 59465  48102.000000  0   -2180768.196  -3999052.963  -5175032.165
10 0 59465  48222.000000  0   -2026724.413  -3274001.072  -5718948.511
10 0 59465  48342.000000  0   -1824348.228  -2495248.991  -6162906.207
10 0 59465  48462.000000  0   -1576365.002  -1677171.548  -6499238.058
10 0 59465  48582.000000  0   -1286535.636   -834739.279  -6722148.493
10 0 59465  48702.000000  0    -959599.743     16753.063  -6827802.691
10 0 59465  48822.000000  0    -601198.832    861958.658  -6814384.757
10 0 59465  48942.000000  0    -217780.348   1685748.039  -6682125.285
10 0 59465  49062.000000  0     183514.473   2473472.641  -6433297.773
10 0 59465  49182.000000  0     594979.536   3211220.245  -6072185.877
10 0 59465  49302.000000  0    1008488.587   3886058.887  -5605017.339
10 0 59465  49422.000000  0    1415651.070   4486263.213  -5039866.225
10 0 59465  49542.000000  0    1807978.395   5001522.431  -4386525.626
10 0 59465  49662.000000  0    2177057.760   5423125.314  -3656348.048
10 0 59465  49782.000000  0    2514729.286   5744116.464  -2862056.512
10 0 59465  49902.000000  0    2813263.564   5959422.103  -2017529.022
10 0 59465  50022.000000  0    3065535.545   6065941.119  -1137557.956
10 0 59465  50142.000000  0    3265189.531   6062597.759   -237588.353
10 0 59465  50262.000000  0    3406790.528   5950353.383    666558.932
10 0 59465  50382.000000  0    3485958.684   5732177.103   1558972.303
10 0 59465  50502.000000  0    3499483.762   5412976.948   2423937.287
10 0 59465  50622.000000  0    3445415.300   4999492.474   3246221.993
10 0 59465  50742.000000  0    3323127.304   4500149.223   4011352.984
10 0 59465  50862.000000  0    3133356.156   3924882.300   4705874.307
10 0 59465  50982.000000  0    2878207.078   3284931.685   5317588.418
10 0 59465  51102.000000  0    2561132.325   2592614.116   5835767.207
10 0 59465  51222.000000  0    2186885.092   1861080.934   6251335.217
10 0 59465  51342.000000  0    1761446.636   1104063.570   6557024.278
10 0 59465  51462.000000  0    1291927.674    335612.539   6747493.713
10 0 59465  51582.000000  0     786447.756   -430162.611   6819417.393
10 0 59465  51702.000000  0     253994.515  -1179351.760   6771539.809
10 0 59465  51822.000000  0    -295736.416  -1898497.134   6604696.621
10 0 59465  51942.000000  0    -852517.978  -2574834.978   6321800.465
10 0 59465  52062.000000  0   -1405780.792  -3196522.410   5927791.701
10 0 59465  52182.000000  0   -1944810.905  -3752845.567   5429557.261
10 0 59465  52302.000000  0   -2458957.028  -4234408.067   4835818.554
10 0 59465  52422.000000  0   -2937843.674  -4633296.363   4156985.820
10 0 59465  52542.000000  0   -3371583.847  -4943216.704   3404979.227
10 0 59465  52662.000000  0   -3750985.095  -5159600.506   2593020.233
10 0 59465  52782.000000  0   -4067745.015  -5279676.191   1735398.342
10 0 59465  52902.000000  0   -4314633.267  -5302505.751    847215.809
10 0 59465  53022.000000  0   -4485654.231  -5228983.842    -55884.733
10 0 59465  53142.000000  0   -4576186.393  -5061800.017   -958003.839
10 0 59465  53262.000000  0   -4583094.306  -4805364.303  -1843274.928
10 0 59465  53382.000000  0   -4504809.480  -4465697.173  -2696152.371
10 0 59465  53502.000000  0   -4341378.791  -4050287.813  -3501690.436
10 0 59465  53622.000000  0   -4094479.933  -3567925.870  -4245807.407
10 0 59465  53742.000000  0   -3767404.576  -3028511.304  -4915530.430
10 0 59465  53862.000000  0   -3365009.913  -2442846.503  -5499216.946
10 0 59465  53982.000000  0   -2893640.348  -1822416.491  -5986748.664
10 0 59465  54102.000000  0   -2361022.190  -1179162.044  -6369697.066
10 0 59465  54222.000000  0   -1776132.284   -525249.803  -6641458.141
10 0 59465  54342.000000  0   -1149044.284    127155.429  -6797354.059
10 0 59465  54462.000000  0    -490757.112    766111.594  -6834703.864
10 0 59465  54582.000000  0     186994.127   1380112.399  -6752864.812
10 0 59465  54702.000000  0     871941.236   1958288.639  -6553242.415
10 0 59465  54822.000000  0    1551500.145   2490596.925  -6239271.165
10 0 59465  54942.000000  0    2212997.592   2967992.308  -5816361.407
10 0 59465  55062.000000  0    2843903.933   3382582.163  -5291814.958
10 0 59465  55182.000000  0    3432067.962   3727758.215  -4674710.101
10 0 59465  55302.000000  0    3965951.778   3998306.841  -3975756.368
99
